IRIDIUM 921 [-]         
1 24873U 97034E   23315.28547794  .00018777  00000+0  69257-3 0  9998
2 24873  86.3907  35.3175 0005120  25.2632 334.8865 15.27664116441657
IRIDIUM 26 [-]          
1 24903U 97043A   23315.56203061  .00000627  00000+0  20905-3 0  9991
2 24903  86.3982 355.4971 0002038  97.2699 262.8729 14.36077328372958
IRIDIUM 22 [-]          
1 24907U 97043E   23315.58919862  .00000616  00000+0  20948-3 0  9995
2 24907  86.3990 358.5477 0002149  91.3649 268.7793 14.34984342373058
DUMMY MASS 1 [-]        
1 24925U 97048A   23315.28368049  .00000811  00000+0  89800-4 0  9992
2 24925  86.3378  45.0888 0008890  63.9457 296.2682 14.85922181418392
DUMMY MASS 2 [-]        
1 24926U 97048B   23315.28491874  .00000809  00000+0  90003-4 0  9990
2 24926  86.3377  46.5926 0009862  71.6554 288.5742 14.85683274418180
IRIDIUM 29 [-]          
1 24944U 97051A   23315.73100834  .00000562  00000+0  18896-3 0  9992
2 24944  86.4001  28.4478 0002154  86.7840 273.3603 14.35438836369762
IRIDIUM 33 [-]          
1 24946U 97051C   23315.48920242  .00000494  00000+0  16938-3 0  9998
2 24946  86.3916  27.8215 0008203 167.9651 192.1742 14.34174424369067
IRIDIUM 28 [-]          
1 24948U 97051E   23315.73948015  .00000682  00000+0  22627-3 0  9997
2 24948  86.4006  26.2965 0002045 105.3025 254.8399 14.36383653370136
